CUTE-1 (CO-55)          
1 27844U 03031E   21115.57461832  .00000081  00000-0  55882-4 0  9999
2 27844  98.6819 124.5866 0008946 227.1754 132.8673 14.22303465924460
CUBESAT XI-IV (CO-57)   
1 27848U 03031J   21115.55208512  .00000063  00000-0  48594-4 0  9997
2 27848  98.6877 125.1312 0008674 241.8292 118.2009 14.21881035924294
CUBESAT XI-V            
1 28895U 05043F   21115.86396676  .00000220  00000-0  51020-4 0  9991
2 28895  98.0500 250.2755 0017068  20.9362 339.2536 14.63898479826541
CUTE-1.7+APD II (CO-65) 
1 32785U 08021C   21115.70395122  .00000425  00000-0  51158-4 0  9990
2 32785  97.6078  96.6068 0013078 171.2915 188.8532 14.88691503704397
AAUSAT-II               
1 32788U 08021F   21115.56633441  .00000552  00000-0  54671-4 0  9990
2 32788  97.5046 112.4472 0013346  87.5340 272.7409 14.95513951705956
DELFI-C3 (DO-64)        
1 32789U 08021G   21115.76073882  .00002520  00000-0  16399-3 0  9991
2 32789  97.3812 153.1501 0010583 331.7457  28.3197 15.08800431708986
SEEDS II (CO-66)        
1 32791U 08021J   21115.42573068  .00000593  00000-0  64692-4 0  9996
2 32791  97.5688 102.3027 0014229 137.6787 222.5533 14.91360232704878
SWISSCUBE               
1 35932U 09051B   21115.52750931  .00000214  00000-0  59246-4 0  9996
2 35932  98.6066 313.8744 0006422 247.0428 113.0092 14.56518884615255
BEESAT-1                
1 35933U 09051C   21115.49526230  .00000178  00000-0  51089-4 0  9992
2 35933  98.6033 315.6761 0004540 262.1857  97.8825 14.56578780615324
ITUPSAT1                
1 35935U 09051E   21115.53664900  .00000161  00000-0  48123-4 0  9993
2 35935  98.6138 315.8674 0006873 263.3991  96.6423 14.55713002615104
TISAT 1                 
1 36799U 10035E   21115.45989059  .00000734  00000-0  79046-4 0  9996
2 36799  98.2072 304.1299 0012856  33.1104 327.0915 14.91689595585435
M-CUBED & EXP-1 PRIME   
1 37855U 11061F   21115.66024174  .00002019  00000-0  10440-3 0  9991
2 37855 101.7163  11.6983 0167181 227.6893 131.0052 15.07495367518696
AEROCUBE 4.5A           
1 38767U 12048K   21115.79906963  .00000954  00000-0  89913-4 0  9997
2 38767  64.6665 339.4311 0146443  23.9799 336.8041 14.92725086 88411
AEROCUBE 4.5B           
1 38768U 12048L   21115.49481877  .00001096  00000-0  93403-4 0  9994
2 38768  64.6659 303.2811 0138207  18.4646 342.1411 14.96569643 88564
STRAND-1                
1 39090U 13009E   21115.56021562  .00000129  00000-0  59928-4 0  9990
2 39090  98.4325 319.0001 0010378  77.7253 282.5094 14.35178005427454
SOMP                    
1 39134U 13015E   21115.76439478  .00002926  00000-0  13489-3 0  9995
2 39134  64.8646 343.7855 0004707 275.8886  84.1706 15.22378599443573
BEESAT-3                
1 39135U 13015F   21115.85078149  .00002509  00000-0  12790-3 0  9991
2 39135  64.8691  11.8327 0003360 194.3414 165.7618 15.19217005443047
BEESAT-2                
1 39136U 13015G   21115.82655014  .00002299  00000-0  11924-3 0  9995
2 39136  64.8784  18.0876 0028019 249.5641 110.2476 15.18592879442929
NEE-01 PEGASO           
1 39151U 13018B   21115.77024066  .00000315  00000-0  48211-4 0  9993
2 39151  97.9748 218.5466 0017462 164.3287 195.8469 14.80328007431887
ESTCUBE 1               
1 39161U 13021C   21115.75180551  .00000237  00000-0  45108-4 0  9993
2 39161  97.9377 198.1514 0008859 327.1487  32.9168 14.72460669427990
POPACS 1                
1 39268U 13055D   21115.00165238  .00006975  00000-0  18663-3 0  9991
2 39268  80.9991 326.1429 0605041  15.0388 346.7926 14.42261657392856
POPACS 2                
1 39269U 13055E   21115.45053627  .00004165  00000-0  11637-3 0  9992
2 39269  81.0172  11.1711 0670154 131.5195 234.5519 14.27485333390461
POPACS 3                
1 39270U 13055F   21115.47261879  .00002111  00000-0  65067-4 0  9992
2 39270  81.0197  37.2659 0703958 205.9367 150.4907 14.18236717369335
ZACUBE-1 (TSHEPISOSAT)  
1 39417U 13066B   21115.49830634  .00000454  00000-0  62808-4 0  9998
2 39417  97.5906 102.5774 0058023 336.2449  23.6088 14.81486139401239
WNISAT-1                
1 39423U 13066H   21115.72046422  .00000245  00000-0  58135-4 0  9991
2 39423  97.7960  21.8500 0175587   2.1356 358.0551 14.53209361393777
TRITON-1                
1 39427U 13066M   21115.77227530  .00000285  00000-0  52998-4 0  9996
2 39427  97.7707  66.1680 0113796 158.7332 201.8660 14.68205246397681
GOMX-1                  
1 39430U 13066Q   21115.74625464  .00000355  00000-0  73408-4 0  9992
2 39430  97.8125  41.8436 0149182 281.1576  77.2893 14.59588987395359
CUBEBUG-2 (LO-74)       
1 39440U 13066AA  21115.78626024  .00000474  00000-0  71990-4 0  9996
2 39440  97.6720  87.7441 0081085  47.1454 313.6530 14.76214202399855
NEE-02 KRYSAOR          
1 39441U 13066AB  21115.33557065  .00000307  00000-0  50177-4 0  9995
2 39441  97.6814  84.6796 0082851  59.1659 301.7669 14.75160703398384
FUNCUBE-1 (AO-73)       
1 39444U 13066AE  21115.51474438  .00000541  00000-0  72179-4 0  9996
2 39444  97.5817 104.9469 0056820 326.7606  33.0044 14.82387107400185
UWE-3                   
1 39446U 13066AG  21115.71377137  .00000481  00000-0  69685-4 0  9999
2 39446  97.6334  94.6611 0070093  12.5995 347.6948 14.78752279399304
AEROCUBE 5A             
1 39465U 13072D   21115.51059011  .00013769  00000-0  10564-2 0  9996
2 39465 120.4918 216.4447 0250618 203.2094 155.7469 14.80594609 87507
AEROCUBE 5B             
1 39466U 13072E   21115.46653195  .00020585  00000-0  13011-2 0  9998
2 39466 120.4679 270.5353 0215950 215.8291 142.8110 14.91859365 88020
BRITE-CA1 (TORONTO)     
1 40020U 14033L   21115.52976003  .00000171  00000-0  37170-4 0  9990
2 40020  97.7398 291.9918 0087913 155.9024 204.6333 14.66730288366500
DUCHIFAT-1              
1 40021U 14033M   21115.79745265  .00000742  00000-0  80290-4 0  9999
2 40021  97.9692  55.4438 0012459 344.9797  15.1049 14.91285202372437
NANOSATC-BR1            
1 40024U 14033Q   21115.79849333  .00000572  00000-0  64587-4 0  9995
2 40024  97.9488  50.7099 0011936 350.8913   9.2086 14.90392129372272
QB50P1                  
1 40025U 14033R   21115.27888356  .00000556  00000-0  64418-4 0  9992
2 40025  97.9313  45.8334 0012436   0.6291 359.4939 14.89401504371500
QB50P2                  
1 40032U 14033Y   21115.49603225  .00000497  00000-0  58898-4 0  9993
2 40032  97.9156  42.7649 0011740 357.6197   2.4962 14.88912848371413
PERSEUS-M2              
1 40037U 14033AD  21115.77841547  .00000187  00000-0  27232-4 0  9994
2 40037  97.8908  35.7883 0014723  13.9570 346.2049 14.86657046371560
PERSEUS-M1              
1 40039U 14033AF  21115.73298582  .00000199  00000-0  28810-4 0  9993
2 40039  97.8850  34.1542 0014526  12.6655 347.4923 14.86277079371461
POLYITAN-1              
1 40042U 14033AJ  21115.79405226  .00000625  00000-0  72099-4 0  9990
2 40042  97.9406  47.1109 0014414 349.3504  10.7406 14.89203705371986
TIGRISAT                
1 40043U 14033AK  21115.52613629  .00000254  00000-0  44309-4 0  9991
2 40043  97.6781 322.1089 0061218  69.9922 290.7865 14.74515034368335
AEROCUBE 6A             
1 40045U 14033AM  21115.53102322  .00000363  00000-0  58696-4 0  9992
2 40045  97.7016 329.1275 0059173  60.1418 300.5655 14.75784498368131
AEROCUBE 6B             
1 40046U 14033AN  21115.53996810  .00000507  00000-0  79090-4 0  9997
2 40046  97.6913 328.0372 0058156  59.1129 301.5783 14.75811308368516
UKUBE-1                 
1 40074U 14037F   21115.53629689  .00000479  00000-0  63971-4 0  9998
2 40074  98.4369 328.2709 0003834 181.2370 178.8825 14.84519065368051
BRITE-PL2 (HEWELIUSZ)   
1 40119U 14049B   21115.79123385  .00000249  00000-0  35810-4 0  9997
2 40119  97.8852 210.8359 0017822 163.8364 196.3423 14.84635284362122
FIREBIRD 4              
1 40378U 15003C   21115.61558637  .00003283  00000-0  12234-3 0  9993
2 40378  99.0910 245.9551 0118177 350.2784   9.6160 15.22144983344762
GRIFEX                  
1 40379U 15003D   21115.79995997  .00002714  00000-0  11231-3 0  9991
2 40379  99.0870 235.9486 0129150  21.0403 339.6071 15.17856615344200
CP10 (EXOCUBE)          
1 40380U 15003E   21115.58493132  .00002499  00000-0  10915-3 0  9992
2 40380  99.0885 230.3338 0135094  39.9765 321.1314 15.15568684343801
AEROCUBE 8A             
1 40659U 15025J   21115.74473034  .00053200  00000-0  32255-3 0  9999
2 40659  55.0081 273.4262 0064896 276.3495  83.0161 15.74052573 92414
AEROCUBE 8B             
1 40660U 15025K   21115.74422985  .00054791  00000-0  32023-3 0  9999
2 40660  55.0052 270.1056 0063488 279.2689  80.1178 15.74969011 92445
TIANWANG 1A (TW-1A)     
1 40928U 15051D   21115.77265227  .00006350  00000-0  13473-3 0  9998
2 40928  97.0816 141.9480 0011221 118.9898 357.4222 15.45327310313557
EXACTVIEW 9             
1 40936U 15052G   21115.01206064  .00000894  00000-0  35681-4 0  9992
2 40936   6.0041 278.5347 0010572 349.7284  10.2627 14.76686776301272
AEROCUBE 5C             
1 40965U 15058B   21115.80255332  .00000109  00000-0  30767-4 0  9998
2 40965  64.7763 277.7048 0200231 326.8140  32.0531 14.74735641 87366
AEROCUBE 7              
1 40966U 15058C   21115.51164186  .00000193  00000-0  39625-4 0  9998
2 40966  64.7764 276.5975 0199090 326.5686  32.2975 14.75084217 87312
ATHENOXAT 1             
1 41168U 15077C   21115.68883935  .00003516  00000-0  14397-3 0  9992
2 41168  14.9882 288.8836 0010435 157.8720 301.9242 15.15518593296764
GALASSIA                
1 41170U 15077E   21114.80673402  .00002941  00000-0  11363-3 0  9995
2 41170  14.9891 286.2161 0012162 175.0204 185.0239 15.15742220296705
VELOX-II                
1 41171U 15077F   21115.28388509  .00002393  00000-0  95865-4 0  9991
2 41171  14.9920 338.2790 0008467  55.3337 304.7781 15.12436910296238
HORYU-4                 
1 41340U 16012D   21115.44976418  .00000750  00000-0  49507-4 0  9996
2 41340  31.0040 144.4423 0013785   6.3860 353.6950 15.01842761284810
